{
  "norad_id": 60330,
  "name": "STARLINK-32153",
  "history": [
    {
      "epoch": "2026-04-11T18:16:00.558048Z",
      "apogee_km": 475.9414255143629,
      "perigee_km": 474.54607719338674,
      "latitude_deg": 5.233745700932664e-05,
      "longitude_deg": 168.38354364624618,
      "height_km": 476.16102157985426,
      "semi_major_axis_km": 6853.380751353875,
      "eccentricity": 0.0001018,
      "inclination_deg": 53.1613,
      "raan_deg": 282.3618,
      "arg_perigee_deg": 91.538,
      "mean_anomaly_deg": 268.5738,
      "mean_motion_rev_day": 15.30190394
    },
    {
      "epoch": "2026-04-13T04:45:10.840896Z",
      "apogee_km": 475.8977607476736,
      "perigee_km": 474.584379374327,
      "latitude_deg": 7.041982918350768e-05,
      "longitude_deg": 2.9987136722540133,
      "height_km": 476.2444172074837,
      "semi_major_axis_km": 6853.378070061,
      "eccentricity": 9.582e-05,
      "inclination_deg": 53.1593,
      "raan_deg": 275.6861,
      "arg_perigee_deg": 99.1941,
      "mean_anomaly_deg": 260.9169,
      "mean_motion_rev_day": 15.30191292
    },
    {
      "epoch": "2026-04-14T15:14:21.249888Z",
      "apogee_km": 475.93913063940545,
      "perigee_km": 474.5451533219257,
      "latitude_deg": 6.211621014903786e-05,
      "longitude_deg": -162.38596080563076,
      "height_km": 476.23286545372036,
      "semi_major_axis_km": 6853.379141980665,
      "eccentricity": 0.0001017,
      "inclination_deg": 53.1584,
      "raan_deg": 269.0111,
      "arg_perigee_deg": 97.6248,
      "mean_anomaly_deg": 262.4869,
      "mean_motion_rev_day": 15.30190933
    },
    {
      "epoch": "2026-04-15T19:27:18.603072Z",
      "apogee_km": 475.876087307166,
      "perigee_km": 474.5903950499205,
      "latitude_deg": 2.3019963728798927e-05,
      "longitude_deg": 127.75585350862694,
      "height_km": 476.1938303849545,
      "semi_major_axis_km": 6853.370241178543,
      "eccentricity": 9.38e-05,
      "inclination_deg": 53.1597,
      "raan_deg": 263.5507,
      "arg_perigee_deg": 95.5435,
      "mean_anomaly_deg": 264.5673,
      "mean_motion_rev_day": 15.30193914
    },
    {
      "epoch": "2026-04-16T17:24:04.833216Z",
      "apogee_km": 476.1379728855445,
      "perigee_km": 474.3999491338318,
      "latitude_deg": -6.092001163502296e-07,
      "longitude_deg": 153.41451467099517,
      "height_km": 476.15650103227364,
      "semi_major_axis_km": 6853.405961009687,
      "eccentricity": 0.0001268,
      "inclination_deg": 53.1605,
      "raan_deg": 259.3033,
      "arg_perigee_deg": 89.3021,
      "mean_anomaly_deg": 270.8125,
      "mean_motion_rev_day": 15.30181951
    },
    {
      "epoch": "2026-04-17T16:54:52.518528Z",
      "apogee_km": 476.2238076374497,
      "perigee_km": 474.2627813999761,
      "latitude_deg": 2.4102367524499424e-05,
      "longitude_deg": 155.20179092017773,
      "height_km": 476.6006961390381,
      "semi_major_axis_km": 6853.380294518713,
      "eccentricity": 0.00014307,
      "inclination_deg": 53.1609,
      "raan_deg": 254.7549,
      "arg_perigee_deg": 117.9282,
      "mean_anomaly_deg": 242.1864,
      "mean_motion_rev_day": 15.30190547
    },
    {
      "epoch": "2026-04-18T19:33:44.862048Z",
      "apogee_km": 475.9524302452601,
      "perigee_km": 474.36931843628736,
      "latitude_deg": -6.1191602461186945e-06,
      "longitude_deg": 109.23028147447233,
      "height_km": 476.0538040030876,
      "semi_major_axis_km": 6853.297874340774,
      "eccentricity": 0.0001155,
      "inclination_deg": 53.1599,
      "raan_deg": 249.5959,
      "arg_perigee_deg": 89.6164,
      "mean_anomaly_deg": 270.4969,
      "mean_motion_rev_day": 15.30218151
    },
    {
      "epoch": "2026-04-19T14:22:24.847680Z",
      "apogee_km": 476.13475642344565,
      "perigee_km": 474.2980577103508,
      "latitude_deg": 8.9789345089511e-06,
      "longitude_deg": -177.3525595497343,
      "height_km": 475.51535853427464,
      "semi_major_axis_km": 6853.3534070668975,
      "eccentricity": 0.000134,
      "inclination_deg": 53.16,
      "raan_deg": 245.9522,
      "arg_perigee_deg": 49.2486,
      "mean_anomaly_deg": 310.8631,
      "mean_motion_rev_day": 15.30199552
    },
    {
      "epoch": "2026-04-19T14:22:24.848544Z",
      "apogee_km": 476.13475642344565,
      "perigee_km": 474.2980577103508,
      "latitude_deg": 8.967010600201212e-06,
      "longitude_deg": -177.35256316846142,
      "height_km": 475.515358536002,
      "semi_major_axis_km": 6853.3534070668975,
      "eccentricity": 0.000134,
      "inclination_deg": 53.16,
      "raan_deg": 245.9522,
      "arg_perigee_deg": 49.2486,
      "mean_anomaly_deg": 310.8631,
      "mean_motion_rev_day": 15.30199552
    },
    {
      "epoch": "2026-04-21T13:23:59.788896Z",
      "apogee_km": 476.0530805491899,
      "perigee_km": 474.38634419674054,
      "latitude_deg": 5.686917023578277e-05,
      "longitude_deg": -173.77852094234913,
      "height_km": 476.0317053872659,
      "semi_major_axis_km": 6853.356712372965,
      "eccentricity": 0.0001216,
      "inclination_deg": 53.16,
      "raan_deg": 236.8531,
      "arg_perigee_deg": 84.0659,
      "mean_anomaly_deg": 276.0481,
      "mean_motion_rev_day": 15.30198445
    },
    {
      "epoch": "2026-04-22T14:28:51.269088Z",
      "apogee_km": 476.1008479887696,
      "perigee_km": 474.37105665560375,
      "latitude_deg": -1.642606421920417e-05,
      "longitude_deg": 164.1251823249426,
      "height_km": 476.097999755921,
      "semi_major_axis_km": 6853.372952322186,
      "eccentricity": 0.0001262,
      "inclination_deg": 53.1606,
      "raan_deg": 232.0014,
      "arg_perigee_deg": 87.6075,
      "mean_anomaly_deg": 272.507,
      "mean_motion_rev_day": 15.30193006
    },
    {
      "epoch": "2026-04-23T13:59:38.953536Z",
      "apogee_km": 476.15484305394693,
      "perigee_km": 474.3274583038501,
      "latitude_deg": -3.957749280205695e-05,
      "longitude_deg": 165.9070231893655,
      "height_km": 476.14051867981425,
      "semi_major_axis_km": 6853.378150678898,
      "eccentricity": 0.00013332,
      "inclination_deg": 53.1601,
      "raan_deg": 227.4476,
      "arg_perigee_deg": 90.0857,
      "mean_anomaly_deg": 270.0296,
      "mean_motion_rev_day": 15.30191265
    },
    {
      "epoch": "2026-04-24T18:12:38.278368Z",
      "apogee_km": 476.18159615474906,
      "perigee_km": 474.4051869972536,
      "latitude_deg": 1.906732128882326e-05,
      "longitude_deg": 96.04136903615152,
      "height_km": 476.0687718367433,
      "semi_major_axis_km": 6853.430391576001,
      "eccentricity": 0.0001296,
      "inclination_deg": 53.1599,
      "raan_deg": 221.9879,
      "arg_perigee_deg": 82.0625,
      "mean_anomaly_deg": 278.0523,
      "mean_motion_rev_day": 15.30173769
    },
    {
      "epoch": "2026-04-25T13:01:16.516128Z",
      "apogee_km": 476.0036669535157,
      "perigee_km": 474.54800206746586,
      "latitude_deg": -9.808969205054505e-06,
      "longitude_deg": 169.4690984951462,
      "height_km": 476.1233161950494,
      "semi_major_axis_km": 6853.41283451049,
      "eccentricity": 0.0001062,
      "inclination_deg": 53.1621,
      "raan_deg": 218.3475,
      "arg_perigee_deg": 85.9741,
      "mean_anomaly_deg": 274.1381,
      "mean_motion_rev_day": 15.30179649
    },
    {
      "epoch": "2026-04-26T10:57:59.793120Z",
      "apogee_km": 475.90729224415463,
      "perigee_km": 474.538128041263,
      "latitude_deg": 6.770198868702908e-05,
      "longitude_deg": -164.86052802156232,
      "height_km": 476.1096931941759,
      "semi_major_axis_km": 6853.3597101427085,
      "eccentricity": 9.989e-05,
      "inclination_deg": 53.1595,
      "raan_deg": 214.0994,
      "arg_perigee_deg": 89.0463,
      "mean_anomaly_deg": 271.0653,
      "mean_motion_rev_day": 15.30197441
    },
    {
      "epoch": "2026-04-27T13:36:55.240992Z",
      "apogee_km": 476.29872126028386,
      "perigee_km": 474.2015847914581,
      "latitude_deg": 1.5178723054403615e-05,
      "longitude_deg": 149.1557761342447,
      "height_km": 476.09609323289845,
      "semi_major_axis_km": 6853.38715302587,
      "eccentricity": 0.000153,
      "inclination_deg": 53.1599,
      "raan_deg": 208.9412,
      "arg_perigee_deg": 87.1706,
      "mean_anomaly_deg": 272.947,
      "mean_motion_rev_day": 15.3018825
    },
    {
      "epoch": "2026-04-28T14:41:45.489984Z",
      "apogee_km": 476.23307427109467,
      "perigee_km": 474.18255350277923,
      "latitude_deg": -2.019172821642794e-06,
      "longitude_deg": 127.06046865367696,
      "height_km": 476.14642645600776,
      "semi_major_axis_km": 6853.344813886936,
      "eccentricity": 0.0001496,
      "inclination_deg": 53.16,
      "raan_deg": 204.0853,
      "arg_perigee_deg": 92.2834,
      "mean_anomaly_deg": 267.8338,
      "mean_motion_rev_day": 15.3020243
    },
    {
      "epoch": "2026-04-29T14:12:33.672096Z",
      "apogee_km": 475.98980107448824,
      "perigee_km": 474.4669832843456,
      "latitude_deg": 3.1315100427142846e-05,
      "longitude_deg": 128.84537475089175,
      "height_km": 476.275268158231,
      "semi_major_axis_km": 6853.365392179417,
      "eccentricity": 0.0001111,
      "inclination_deg": 53.1594,
      "raan_deg": 199.5366,
      "arg_perigee_deg": 101.2566,
      "mean_anomaly_deg": 258.856,
      "mean_motion_rev_day": 15.30195538
    },
    {
      "epoch": "2026-04-30T13:43:20.971200Z",
      "apogee_km": 475.78179699047723,
      "perigee_km": 474.6483896212858,
      "latitude_deg": 4.1462177138006774e-05,
      "longitude_deg": 130.6312522564536,
      "height_km": 476.195861405568,
      "semi_major_axis_km": 6853.352093305882,
      "eccentricity": 8.269e-05,
      "inclination_deg": 53.1592,
      "raan_deg": 194.9852,
      "arg_perigee_deg": 98.3382,
      "mean_anomaly_deg": 261.7713,
      "mean_motion_rev_day": 15.30199992
    }
  ]
}